{
  "type": "FeatureCollection",
  "features": [
    {
      "type": "Feature",
      "properties": {
        "norad_id": 29268,
        "name": "ARIRANG-2 (KOMPSAT-2)",
        "group": "resource",
        "lat": 29.8362387855284,
        "lon": 178.2600020693254,
        "alt_km": 680.14050575277,
        "timestamp": "2025-12-20T16:47:35.947896+00:00",
        "meta_object_name": "ARIRANG-2 (KOMPSAT-2)",
        "meta_object_id": "2006-031A",
        "meta_epoch": "2025-12-20T12:07:20.403264",
        "meta_mean_motion": 14.64499584,
        "meta_eccentricity": 0.001318,
        "meta_inclination": 97.8254,
        "meta_ra_of_asc_node": 182.599,
        "meta_arg_of_pericenter": 282.3099,
        "meta_mean_anomaly": 162.3106,
        "meta_ephemeris_type": 0,
        "meta_classification_type": "U",
        "meta_norad_cat_id": 29268,
        "meta_element_set_no": 999,
        "meta_rev_at_epoch": 3532,
        "meta_bstar": 2.3279e-05,
        "meta_mean_motion_dot": 7.8e-07,
        "meta_mean_motion_ddot": 0,
        "tle_line1": "1 29268U 06031A   25354.50509726  .00000078  00000+0  23279-4 0  9991",
        "tle_line2": "2 29268  97.8254 182.5990 0013180 282.3099 162.3106 14.64499584 35320"
      },
      "geometry": {
        "type": "Point",
        "coordinates": [
          178.2600020693254,
          29.8362387855284
        ]
      }
    },
    {
      "type": "Feature",
      "properties": {
        "norad_id": 29709,
        "name": "LAPAN-TUBSAT",
        "group": "resource",
        "lat": -30.756636646805514,
        "lon": 160.1427970698234,
        "alt_km": 626.2977243428504,
        "timestamp": "2025-12-20T16:47:35.947906+00:00",
        "meta_object_name": "LAPAN-TUBSAT",
        "meta_object_id": "2007-001A",
        "meta_epoch": "2025-12-20T12:36:52.041312",
        "meta_mean_motion": 14.8568117,
        "meta_eccentricity": 0.001339,
        "meta_inclination": 98.125,
        "meta_ra_of_asc_node": 344.8421,
        "meta_arg_of_pericenter": 51.0535,
        "meta_mean_anomaly": 309.187,
        "meta_ephemeris_type": 0,
        "meta_classification_type": "U",
        "meta_norad_cat_id": 29709,
        "meta_element_set_no": 999,
        "meta_rev_at_epoch": 2462,
        "meta_bstar": 8.0365e-05,
        "meta_mean_motion_dot": 6.4e-06,
        "meta_mean_motion_ddot": 0,
        "tle_line1": "1 29709U 07001A   25354.52560233  .00000640  00000+0  80365-4 0  9995",
        "tle_line2": "2 29709  98.1250 344.8421 0013390  51.0535 309.1870 14.85681170 24628"
      },
      "geometry": {
        "type": "Point",
        "coordinates": [
          160.1427970698234,
          -30.756636646805514
        ]
      }
    },
    {
      "type": "Feature",
      "properties": {
        "norad_id": 31113,
        "name": "HAIYANG-1B",
        "group": "resource",
        "lat": -29.192141615501104,
        "lon": -16.65425642313269,
        "alt_km": 787.2931232579385,
        "timestamp": "2025-12-20T16:47:35.947932+00:00",
        "meta_object_name": "HAIYANG-1B",
        "meta_object_id": "2007-010A",
        "meta_epoch": "2025-12-20T11:53:46.555872",
        "meta_mean_motion": 14.3096749,
        "meta_eccentricity": 0.0013883,
        "meta_inclination": 98.3321,
        "meta_ra_of_asc_node": 338.4536,
        "meta_arg_of_pericenter": 15.9883,
        "meta_mean_anomaly": 344.1736,
        "meta_ephemeris_type": 0,
        "meta_classification_type": "U",
        "meta_norad_cat_id": 31113,
        "meta_element_set_no": 999,
        "meta_rev_at_epoch": 97507,
        "meta_bstar": 4.2865e-05,
        "meta_mean_motion_dot": 7.1e-07,
        "meta_mean_motion_ddot": 0,
        "tle_line1": "1 31113U 07010A   25354.49567773  .00000071  00000+0  42865-4 0  9990",
        "tle_line2": "2 31113  98.3321 338.4536 0013883  15.9883 344.1736 14.30967490975075"
      },
      "geometry": {
        "type": "Point",
        "coordinates": [
          -16.65425642313269,
          -29.192141615501104
        ]
      }
    },
    {
      "type": "Feature",
      "properties": {
        "norad_id": 31598,
        "name": "COSMO-SKYMED 1",
        "group": "resource",
        "lat": 79.84502934290029,
        "lon": 50.82992808706617,
        "alt_km": 571.3709972651714,
        "timestamp": "2025-12-20T16:47:35.947945+00:00",
        "meta_object_name": "COSMO-SKYMED 1",
        "meta_object_id": "2007-023A",
        "meta_epoch": "2025-12-20T11:32:51.587232",
        "meta_mean_motion": 14.95821839,
        "meta_eccentricity": 0.0001575,
        "meta_inclination": 97.8837,
        "meta_ra_of_asc_node": 179.9312,
        "meta_arg_of_pericenter": 83.529,
        "meta_mean_anomaly": 276.611,
        "meta_ephemeris_type": 0,
        "meta_classification_type": "U",
        "meta_norad_cat_id": 31598,
        "meta_element_set_no": 999,
        "meta_rev_at_epoch": 306,
        "meta_bstar": 0.00025917,
        "meta_mean_motion_dot": 2.834e-05,
        "meta_mean_motion_ddot": 0,
        "tle_line1": "1 31598U 07023A   25354.48115263  .00002834  00000+0  25917-3 0  9990",
        "tle_line2": "2 31598  97.8837 179.9312 0001575  83.5290 276.6110 14.95821839  3069"
      },
      "geometry": {
        "type": "Point",
        "coordinates": [
          50.82992808706617,
          79.84502934290029
        ]
      }
    },
    {
      "type": "Feature",
      "properties": {
        "norad_id": 31698,
        "name": "TERRASAR-X",
        "group": "resource",
        "lat": 59.344606003139134,
        "lon": -12.782328606716124,
        "alt_km": 501.5675649381865,
        "timestamp": "2025-12-20T16:47:35.947956+00:00",
        "meta_object_name": "TERRASAR-X",
        "meta_object_id": "2007-026A",
        "meta_epoch": "2025-12-19T12:04:27.729408",
        "meta_mean_motion": 15.19152518,
        "meta_eccentricity": 0.0001854,
        "meta_inclination": 97.4454,
        "meta_ra_of_asc_node": 358.785,
        "meta_arg_of_pericenter": 93.3795,
        "meta_mean_anomaly": 266.7652,
        "meta_ephemeris_type": 0,
        "meta_classification_type": "U",
        "meta_norad_cat_id": 31698,
        "meta_element_set_no": 999,
        "meta_rev_at_epoch": 2594,
        "meta_bstar": 3.366e-05,
        "meta_mean_motion_dot": 6.4e-06,
        "meta_mean_motion_ddot": 0,
        "tle_line1": "1 31698U 07026A   25353.50309872  .00000640  00000+0  33660-4 0  9995",
        "tle_line2": "2 31698  97.4454 358.7850 0001854  93.3795 266.7652 15.19152518 25944"
      },
      "geometry": {
        "type": "Point",
        "coordinates": [
          -12.782328606716124,
          59.344606003139134
        ]
      }
    },
    {
      "type": "Feature",
      "properties": {
        "norad_id": 32060,
        "name": "WORLDVIEW-1 (WV-1)",
        "group": "resource",
        "lat": -38.39476773745493,
        "lon": -73.8288882150223,
        "alt_km": 502.8523764663587,
        "timestamp": "2025-12-20T16:47:35.947966+00:00",
        "meta_object_name": "WORLDVIEW-1 (WV-1)",
        "meta_object_id": "2007-041A",
        "meta_epoch": "2025-12-20T07:57:24.808032",
        "meta_mean_motion": 15.23881703,
        "meta_eccentricity": 0.0003586,
        "meta_inclination": 97.3821,
        "meta_ra_of_asc_node": 111.7057,
        "meta_arg_of_pericenter": 13.6559,
        "meta_mean_anomaly": 346.4774,
        "meta_ephemeris_type": 0,
        "meta_classification_type": "U",
        "meta_norad_cat_id": 32060,
        "meta_element_set_no": 999,
        "meta_rev_at_epoch": 1563,
        "meta_bstar": 0.00024304,
        "meta_mean_motion_dot": 5.797e-05,
        "meta_mean_motion_ddot": 0,
        "tle_line1": "1 32060U 07041A   25354.33153713  .00005797  00000+0  24304-3 0  9991",
        "tle_line2": "2 32060  97.3821 111.7057 0003586  13.6559 346.4774 15.23881703 15634"
      },
      "geometry": {
        "type": "Point",
        "coordinates": [
          -73.8288882150223,
          -38.39476773745493
        ]
      }
    },
    {
      "type": "Feature",
      "properties": {
        "norad_id": 32289,
        "name": "YAOGAN-3",
        "group": "resource",
        "lat": 42.98738214958096,
        "lon": -151.3718058883793,
        "alt_km": 594.4084347511607,
        "timestamp": "2025-12-20T16:47:35.947978+00:00",
        "meta_object_name": "YAOGAN-3",
        "meta_object_id": "2007-055A",
        "meta_epoch": "2025-12-20T12:57:34.050816",
        "meta_mean_motion": 14.89891329,
        "meta_eccentricity": 0.0001159,
        "meta_inclination": 97.8356,
        "meta_ra_of_asc_node": 21.0951,
        "meta_arg_of_pericenter": 71.498,
        "meta_mean_anomaly": 288.6364,
        "meta_ephemeris_type": 0,
        "meta_classification_type": "U",
        "meta_norad_cat_id": 32289,
        "meta_element_set_no": 999,
        "meta_rev_at_epoch": 97925,
        "meta_bstar": 0.00014347,
        "meta_mean_motion_dot": 1.324e-05,
        "meta_mean_motion_ddot": 0,
        "tle_line1": "1 32289U 07055A   25354.53997744  .00001324  00000+0  14347-3 0  9999",
        "tle_line2": "2 32289  97.8356  21.0951 0001159  71.4980 288.6364 14.89891329979250"
      },
      "geometry": {
        "type": "Point",
        "coordinates": [
          -151.3718058883793,
          42.98738214958096
        ]
      }
    }
  ]
}